OBJECT_NAME,OBJECT_ID,EPOCH,MEAN_MOTION,ECCENTRICITY,INCLINATION,RA_OF_ASC_NODE,ARG_OF_PERICENTER,MEAN_ANOMALY,EPHEMERIS_TYPE,CLASSIFICATION_TYPE,NORAD_CAT_ID,ELEMENT_SET_NO,REV_AT_EPOCH,BSTAR,MEAN_MOTION_DOT,MEAN_MOTION_DDOT
CUTE-1 (CO-55),2003-031E,2024-07-07T23:16:05.675232,14.23304231,.0011051,98.6764,196.7086,85.3516,274.8924,0,U,27844,999,9077,.24953E-3,.522E-5,0
CUBESAT XI-IV (CO-57),2003-031J,2024-07-07T23:34:20.951616,14.22739886,.0010918,98.6795,196.9542,99.5118,260.7295,0,U,27848,999,9054,.21555E-3,.44E-5,0
CUBESAT XI-V,2005-043F,2024-07-08T04:03:05.355072,14.67843645,.001439,98.2047,326.0289,292.4684,67.4997,0,U,28895,999,99776,.37165E-3,.2075E-4,0
CUTE-1.7+APD II (CO-65),2008-021C,2024-07-07T20:56:41.339616,14.97034588,.0008923,97.7565,155.0316,254.6670,105.3566,0,U,32785,999,87864,.41449E-3,.4719E-4,0
AAUSAT-II,2008-021F,2024-07-07T20:58:20.012736,15.18489857,.0008268,97.5944,170.1882,101.7695,258.4467,0,U,32788,999,88156,.10127E-2,.20873E-3,0
SEEDS II (CO-66),2008-021J,2024-07-07T21:22:02.239680,15.04317556,.0003916,97.6898,160.9511,217.8981,142.1970,0,U,32791,999,87971,.60205E-3,.8333E-4,0
SWISSCUBE,2009-051B,2024-07-07T16:00:44.182656,14.59172725,.0005892,98.4690,73.3873,253.5162,106.5390,0,U,35932,999,78558,.32053E-3,.1462E-4,0
BEESAT-1,2009-051C,2024-07-07T16:13:11.559936,14.58892918,.0004211,98.4618,74.2786,269.3641,90.7075,0,U,35933,999,78569,.28169E-3,.1271E-4,0
ITUPSAT1,2009-051E,2024-07-08T04:27:16.540704,14.57843650,.0006498,98.4715,74.5714,275.1331,84.9125,0,U,35935,999,78535,.25597E-3,.1124E-4,0
TISAT 1,2010-035E,2024-07-07T04:29:22.250112,15.02936368,.0005002,98.0864,79.4941,150.7580,209.3924,0,U,36799,999,76006,.59515E-3,.7935E-4,0
AEROCUBE 4.5A,2012-048K,2024-07-07T12:01:33.626496,15.10641801,.0109466,64.6589,248.8537,10.9456,349.4008,0,U,38767,999,26353,.54019E-3,.1016E-3,0
AEROCUBE 4.5B,2012-048L,2024-07-08T05:07:51.304800,15.26419864,.0088881,64.6534,170.2902,358.3076,1.7737,0,U,38768,999,26463,.11937E-2,.35004E-3,0
STRAND-1,2013-009E,2024-07-07T11:34:25.656960,14.36112729,.0008707,98.3811,17.2095,184.2994,175.8119,0,U,39090,999,59515,.17511E-3,.468E-5,0
BRITE-AUSTRIA,2013-009F,2024-07-08T00:28:16.730112,14.35833985,.001006,98.3855,17.0043,191.1362,168.9603,0,U,39091,999,59526,.12783E-3,.328E-5,0
NEE-01 PEGASO,2013-018B,2024-07-08T00:30:15.211296,14.85975923,.0014108,98.0390,307.3400,336.1967,23.8594,0,U,39151,999,60507,.39277E-3,.338E-4,0
ESTCUBE 1,2013-021C,2024-07-08T01:53:23.414208,14.76543581,.0009718,97.8276,255.9076,155.0446,205.1236,0,U,39161,999,60021,.36503E-3,.2498E-4,0
POPACS 1,2013-055D,2024-07-07T06:37:21.653184,14.94054233,.0402319,80.9821,128.1893,28.4578,333.7970,0,U,39268,999,56353,.85303E-3,.50172E-3,0
POPACS 2,2013-055E,2024-07-07T09:18:43.353792,14.57663877,.0546667,81.0000,217.4218,261.1971,92.6977,0,U,39269,999,55854,.21446E-3,.9252E-4,0
POPACS 3,2013-055F,2024-07-07T15:47:51.891072,14.37785488,.0625271,81.0084,268.5116,44.4215,320.5396,0,U,39270,999,55660,.25634E-3,.9472E-4,0
ZACUBE-1 (TSHEPISOSAT),2013-066B,2024-07-07T09:49:42.119328,14.89473270,.0052315,97.7347,144.9275,93.6529,267.0673,0,U,39417,999,57459,.50316E-3,.4858E-4,0
WNISAT-1,2013-066H,2024-07-07T12:11:47.641056,14.55337413,.0168617,97.6701,22.1858,305.7946,52.7679,0,U,39423,999,56360,.15317E-3,.754E-5,0
TRITON-1,2013-066M,2024-07-08T03:48:31.312800,14.74298871,.0102922,97.8413,107.4709,15.6804,344.7553,0,U,39427,999,56949,.64797E-3,.4617E-4,0
DELFI-N3XT,2013-066N,2024-07-07T18:38:56.038272,14.78535081,.0101203,97.8380,107.5691,23.0280,337.5421,0,U,39428,999,56931,.11455E-2,.9075E-4,0
GOMX-1,2013-066Q,2024-07-08T03:58:14.487744,14.64297333,.0139531,97.7297,63.2799,185.5443,174.4224,0,U,39430,999,56611,.35164E-3,.2088E-4,0
CUBEBUG-2 (LO-74),2013-066AA,2024-07-07T09:53:03.536736,14.83579798,.006872,97.8136,132.6491,206.7335,153.0331,0,U,39440,999,57133,.34711E-3,.2925E-4,0
NEE-02 KRYSAOR,2013-066AB,2024-07-07T07:31:59.798784,14.80295711,.007276,97.8228,128.3498,229.6939,129.7901,0,U,39441,999,57091,.27851E-3,.2163E-4,0
FUNCUBE-1 (AO-73),2013-066AE,2024-07-07T20:46:31.720224,14.92432239,.0049642,97.7202,148.5502,73.1861,287.4795,0,U,39444,999,57378,.6399E-3,.666E-4,0
UWE-3,2013-066AG,2024-07-07T20:28:36.169824,14.86301828,.0061106,97.7818,139.1544,150.1564,210.3160,0,U,39446,999,57236,.4236E-3,.3802E-4,0
BRITE-CA1 (TORONTO),2014-033L,2024-07-08T03:06:08.943552,14.69528199,.0083498,97.8803,326.5178,26.1996,334.3398,0,U,40020,999,53805,.20945E-3,.1259E-4,0
DUCHIFAT-1,2014-033M,2024-07-08T04:49:24.699648,15.07873617,.001365,98.0900,175.1206,39.4753,320.7465,0,U,40021,999,54729,.78816E-3,.12052E-3,0
